{"type":"FeatureCollection","features":[{"type":"Feature","properties":{"code":"4113551000","name":"분당동","full_name":"경기도 성남시분당구 분당동","level":"hjd","color":2,"area_km2":3.192,"label_lon":127.145975,"label_lat":37.367326},"geometry":{"type":"MultiPolygon","coordinates":[[[[127.160773,37.374161],[127.160878,37.374099],[127.160868,37.373862],[127.160521,37.372785],[127.160351,37.372592],[127.16032,37.372556],[127.158075,37.370075],[127.157583,37.369663],[127.157257,37.36941],[127.15672,37.368999],[127.156191,37.368612],[127.153791,37.365355],[127.152854,37.363535],[127.150192,37.361354],[127.149841,37.361208],[127.149808,37.361194],[127.145112,37.359587],[127.144432,37.359389],[127.141923,37.359415],[127.139482,37.359961],[127.138353,37.36065],[127.136326,37.362495],[127.13319,37.365396],[127.131766,37.367156],[127.131741,37.367197],[127.131741,37.367239],[127.131763,37.367328],[127.132431,37.368115],[127.132122,37.368959],[127.130118,37.369456],[127.128837,37.369148],[127.125624,37.371962],[127.130391,37.375344],[127.133134,37.37293],[127.133908,37.372249],[127.137028,37.369535],[127.137077,37.369569],[127.139459,37.37127],[127.139967,37.371633],[127.140091,37.371721],[127.140385,37.371932],[127.140573,37.372072],[127.140675,37.372148],[127.141488,37.372755],[127.14168,37.373061],[127.143035,37.37536],[127.143354,37.376721],[127.142895,37.377127],[127.142888,37.377274],[127.142872,37.377613],[127.142815,37.378862],[127.145503,37.378905],[127.145905,37.378552],[127.146211,37.377871],[127.146185,37.377727],[127.14617,37.377647],[127.146133,37.377444],[127.147441,37.374934],[127.148152,37.374212],[127.148225,37.374139],[127.148602,37.373877],[127.149325,37.373801],[127.149834,37.374044],[127.150744,37.374288],[127.156785,37.374274],[127.158369,37.374103],[127.158636,37.373889],[127.158808,37.373773],[127.159153,37.373765],[127.159499,37.373842],[127.160773,37.374161]]]]}},{"type":"Feature","properties":{"code":"4113552000","name":"수내1동","full_name":"경기도 성남시분당구 수내1동","level":"hjd","color":2,"area_km2":1.021,"label_lon":127.114733,"label_lat":37.37884},"geometry":{"type":"MultiPolygon","coordinates":[[[[127.121755,37.382239],[127.118738,37.380048],[127.118656,37.379988],[127.120265,37.37759],[127.121666,37.375541],[127.121829,37.375377],[127.12171,37.375291],[127.120974,37.374764],[127.116598,37.371637],[127.112341,37.375492],[127.109005,37.378512],[127.111755,37.381647],[127.116552,37.386706],[127.121755,37.382239]]]]}},{"type":"Feature","properties":{"code":"4113553000","name":"수내2동","full_name":"경기도 성남시분당구 수내2동","level":"hjd","color":1,"area_km2":0.843,"label_lon":127.125057,"label_lat":37.375533},"geometry":{"type":"MultiPolygon","coordinates":[[[[127.130391,37.375344],[127.125624,37.371962],[127.120833,37.368504],[127.11942,37.369679],[127.118337,37.370224],[127.116598,37.371637],[127.120974,37.374764],[127.12171,37.375291],[127.121829,37.375377],[127.121666,37.375541],[127.120265,37.37759],[127.118656,37.379988],[127.118738,37.380048],[127.121755,37.382239],[127.123668,37.380588],[127.128595,37.376941],[127.130391,37.375344]]]]}},{"type":"Feature","properties":{"code":"4113554000","name":"수내3동","full_name":"경기도 성남시분당구 수내3동","level":"hjd","color":0,"area_km2":1.064,"label_lon":127.128441,"label_lat":37.365416},"geometry":{"type":"MultiPolygon","coordinates":[[[[127.139482,37.359961],[127.133945,37.358478],[127.133823,37.358693],[127.133739,37.35884],[127.133686,37.358932],[127.133556,37.359159],[127.133334,37.359271],[127.131952,37.359473],[127.131395,37.359503],[127.131015,37.359563],[127.127947,37.361261],[127.125547,37.362834],[127.125468,37.362887],[127.125425,37.362915],[127.12538,37.362946],[127.125185,37.363168],[127.124159,37.364887],[127.120833,37.368504],[127.125624,37.371962],[127.128837,37.369148],[127.130118,37.369456],[127.132122,37.368959],[127.132431,37.368115],[127.131763,37.367328],[127.131741,37.367239],[127.131741,37.367197],[127.131766,37.367156],[127.13319,37.365396],[127.136326,37.362495],[127.138353,37.36065],[127.139482,37.359961]]]]}},{"type":"Feature","properties":{"code":"4113554500","name":"정자동","full_name":"경기도 성남시분당구 정자동","level":"hjd","color":0,"area_km2":1.003,"label_lon":127.111504,"label_lat":37.37072},"geometry":{"type":"MultiPolygon","coordinates":[[[[127.116598,37.371637],[127.115941,37.371183],[127.115322,37.370724],[127.115232,37.37061],[127.115128,37.370477],[127.115059,37.370349],[127.115015,37.370269],[127.114898,37.37005],[127.114797,37.369756],[127.114782,37.369707],[127.114777,37.36957],[127.114748,37.368564],[127.114741,37.368335],[127.11475,37.367493],[127.114754,37.367079],[127.114758,37.366671],[127.114792,37.363439],[127.114894,37.359955],[127.114409,37.359967],[127.113297,37.359994],[127.110738,37.359967],[127.109849,37.359958],[127.108933,37.359948],[127.108934,37.359908],[127.108959,37.359014],[127.109099,37.358672],[127.109291,37.358483],[127.1098,37.358171],[127.110899,37.357672],[127.111675,37.357321],[127.108535,37.356643],[127.108261,37.358067],[127.108111,37.365435],[127.108074,37.370111],[127.108057,37.372439],[127.109808,37.373731],[127.109909,37.373804],[127.110501,37.374235],[127.110864,37.374497],[127.110913,37.374531],[127.111548,37.374977],[127.112341,37.375492],[127.116598,37.371637]]]]}},{"type":"Feature","properties":{"code":"4113555000","name":"정자1동","full_name":"경기도 성남시분당구 정자1동","level":"hjd","color":3,"area_km2":1.158,"label_lon":127.106862,"label_lat":37.375789},"geometry":{"type":"MultiPolygon","coordinates":[[[[127.109005,37.378512],[127.112341,37.375492],[127.111548,37.374977],[127.110913,37.374531],[127.110864,37.374497],[127.110501,37.374235],[127.109909,37.373804],[127.109808,37.373731],[127.108057,37.372439],[127.108074,37.370111],[127.108111,37.365435],[127.108261,37.358067],[127.108535,37.356643],[127.108476,37.35664],[127.108369,37.356635],[127.107916,37.356634],[127.107113,37.356634],[127.104168,37.356632],[127.103644,37.356633],[127.103576,37.360516],[127.103553,37.361842],[127.103682,37.361987],[127.104215,37.362585],[127.104394,37.363425],[127.104535,37.364089],[127.104535,37.364132],[127.104521,37.365601],[127.104518,37.365879],[127.104276,37.366677],[127.1041,37.367258],[127.104091,37.367293],[127.104029,37.367539],[127.103787,37.368495],[127.10357,37.37106],[127.103566,37.371106],[127.10347,37.37261],[127.103453,37.376106],[127.103428,37.381409],[127.109005,37.378512]]]]}},{"type":"Feature","properties":{"code":"4113556000","name":"정자2동","full_name":"경기도 성남시분당구 정자2동","level":"hjd","color":3,"area_km2":0.508,"label_lon":127.117988,"label_lat":37.366683},"geometry":{"type":"MultiPolygon","coordinates":[[[[127.120833,37.368504],[127.124159,37.364887],[127.123189,37.363492],[127.123097,37.36349],[127.114792,37.363439],[127.114758,37.366671],[127.114754,37.367079],[127.11475,37.367493],[127.114741,37.368335],[127.114748,37.368564],[127.114777,37.36957],[127.114782,37.369707],[127.114797,37.369756],[127.114898,37.37005],[127.115015,37.370269],[127.115059,37.370349],[127.115128,37.370477],[127.115232,37.37061],[127.115322,37.370724],[127.115941,37.371183],[127.116598,37.371637],[127.118337,37.370224],[127.11942,37.369679],[127.120833,37.368504]]]]}},{"type":"Feature","properties":{"code":"4113557000","name":"정자3동","full_name":"경기도 성남시분당구 정자3동","level":"hjd","color":1,"area_km2":1.862,"label_lon":127.120999,"label_lat":37.357996},"geometry":{"type":"MultiPolygon","coordinates":[[[[127.133945,37.358478],[127.131737,37.351201],[127.128034,37.352979],[127.127921,37.353055],[127.127856,37.353099],[127.127743,37.353174],[127.127476,37.35329],[127.125751,37.353174],[127.125521,37.353139],[127.124803,37.353031],[127.124347,37.35296],[127.12404,37.352911],[127.123212,37.352781],[127.121306,37.352502],[127.119676,37.352338],[127.11751,37.353701],[127.111675,37.357321],[127.110899,37.357672],[127.1098,37.358171],[127.109291,37.358483],[127.109099,37.358672],[127.108959,37.359014],[127.108934,37.359908],[127.108933,37.359948],[127.109849,37.359958],[127.110738,37.359967],[127.113297,37.359994],[127.114409,37.359967],[127.114894,37.359955],[127.114792,37.363439],[127.123097,37.36349],[127.123189,37.363492],[127.124159,37.364887],[127.125185,37.363168],[127.12538,37.362946],[127.125425,37.362915],[127.125468,37.362887],[127.125547,37.362834],[127.127947,37.361261],[127.131015,37.359563],[127.131395,37.359503],[127.131952,37.359473],[127.133334,37.359271],[127.133556,37.359159],[127.133686,37.358932],[127.133739,37.35884],[127.133823,37.358693],[127.133945,37.358478]]]]}},{"type":"Feature","properties":{"code":"4113558000","name":"서현1동","full_name":"경기도 성남시분당구 서현1동","level":"hjd","color":0,"area_km2":7.659,"label_lon":127.153333,"label_lat":37.385468},"geometry":{"type":"MultiPolygon","coordinates":[[[[127.168664,37.395449],[127.168359,37.394905],[127.168292,37.392676],[127.168392,37.392495],[127.174413,37.388573],[127.176812,37.387247],[127.177152,37.386793],[127.177156,37.386765],[127.17719,37.386551],[127.17665,37.385078],[127.176512,37.384872],[127.176084,37.384521],[127.173451,37.382673],[127.168732,37.380643],[127.168371,37.38051],[127.168147,37.380428],[127.167936,37.380351],[127.167594,37.380291],[127.164837,37.379851],[127.164781,37.379847],[127.164396,37.379822],[127.164293,37.379835],[127.16417,37.379851],[127.163941,37.379882],[127.163867,37.379896],[127.163701,37.379928],[127.163397,37.379984],[127.162929,37.379995],[127.162323,37.379864],[127.16169,37.379714],[127.161131,37.378555],[127.160979,37.37795],[127.161154,37.377244],[127.161171,37.377188],[127.161126,37.375761],[127.160954,37.374868],[127.160773,37.374161],[127.159499,37.373842],[127.159153,37.373765],[127.158808,37.373773],[127.158636,37.373889],[127.158369,37.374103],[127.156785,37.374274],[127.150744,37.374288],[127.149834,37.374044],[127.149325,37.373801],[127.148602,37.373877],[127.148225,37.374139],[127.148152,37.374212],[127.147441,37.374934],[127.146133,37.377444],[127.14617,37.377647],[127.146185,37.377727],[127.146211,37.377871],[127.145905,37.378552],[127.145503,37.378905],[127.142815,37.378862],[127.139569,37.378743],[127.137094,37.380231],[127.136003,37.379477],[127.130391,37.375344],[127.128595,37.376941],[127.123668,37.380588],[127.121755,37.382239],[127.116552,37.386706],[127.120312,37.39113],[127.12163,37.390487],[127.123091,37.389609],[127.124668,37.388157],[127.126234,37.386716],[127.126399,37.386578],[127.126874,37.386182],[127.127445,37.385706],[127.132454,37.387578],[127.133911,37.388223],[127.136068,37.389179],[127.136251,37.38926],[127.136313,37.389288],[127.138133,37.389224],[127.141167,37.389127],[127.143395,37.390792],[127.143333,37.391854],[127.14326,37.393123],[127.144324,37.39418],[127.145715,37.394683],[127.146537,37.39519],[127.147872,37.395952],[127.149717,37.396505],[127.150127,37.396451],[127.151179,37.396312],[127.151271,37.395894],[127.151343,37.395569],[127.154187,37.395641],[127.154567,37.395752],[127.154732,37.395801],[127.15525,37.396194],[127.156439,37.396404],[127.156635,37.396426],[127.156715,37.396435],[127.156794,37.396444],[127.161129,37.396145],[127.161647,37.396105],[127.163771,37.395758],[127.168664,37.395449]]]]}},{"type":"Feature","properties":{"code":"4113559000","name":"서현2동","full_name":"경기도 성남시분당구 서현2동","level":"hjd","color":3,"area_km2":0.775,"label_lon":127.13729,"label_lat":37.375048},"geometry":{"type":"MultiPolygon","coordinates":[[[[127.142815,37.378862],[127.142872,37.377613],[127.142888,37.377274],[127.142895,37.377127],[127.143354,37.376721],[127.143035,37.37536],[127.14168,37.373061],[127.141488,37.372755],[127.140675,37.372148],[127.140573,37.372072],[127.140385,37.371932],[127.140091,37.371721],[127.139967,37.371633],[127.139459,37.37127],[127.137077,37.369569],[127.137028,37.369535],[127.133908,37.372249],[127.133134,37.37293],[127.130391,37.375344],[127.136003,37.379477],[127.137094,37.380231],[127.139569,37.378743],[127.142815,37.378862]]]]}},{"type":"Feature","properties":{"code":"4113560000","name":"이매1동","full_name":"경기도 성남시분당구 이매1동","level":"hjd","color":1,"area_km2":2.562,"label_lon":127.134055,"label_lat":37.395052},"geometry":{"type":"MultiPolygon","coordinates":[[[[127.145715,37.394683],[127.144324,37.39418],[127.14326,37.393123],[127.143333,37.391854],[127.143395,37.390792],[127.141167,37.389127],[127.138133,37.389224],[127.136313,37.389288],[127.136251,37.38926],[127.136068,37.389179],[127.133911,37.388223],[127.132454,37.387578],[127.127445,37.385706],[127.126874,37.386182],[127.126399,37.386578],[127.126234,37.386716],[127.124668,37.388157],[127.123091,37.389609],[127.12163,37.390487],[127.123868,37.392863],[127.124151,37.393164],[127.124167,37.393237],[127.124399,37.39438],[127.12444,37.394716],[127.124532,37.395479],[127.124532,37.39576],[127.124516,37.400718],[127.124502,37.405311],[127.128627,37.405326],[127.12823,37.402936],[127.128279,37.402552],[127.128739,37.398979],[127.130811,37.40033],[127.131616,37.400856],[127.132692,37.401168],[127.133647,37.401445],[127.136895,37.400811],[127.137998,37.40051],[127.141059,37.39953],[127.14527,37.395831],[127.145715,37.394683]]]]}},{"type":"Feature","properties":{"code":"4113561000","name":"이매2동","full_name":"경기도 성남시분당구 이매2동","level":"hjd","color":2,"area_km2":0.595,"label_lon":127.122053,"label_lat":37.402926},"geometry":{"type":"MultiPolygon","coordinates":[[[[127.124502,37.405311],[127.124516,37.400718],[127.124532,37.39576],[127.124532,37.395479],[127.12444,37.394716],[127.124399,37.39438],[127.124167,37.393237],[127.124151,37.393164],[127.123868,37.392863],[127.12163,37.390487],[127.120312,37.39113],[127.12076,37.394687],[127.120749,37.394736],[127.120505,37.395853],[127.120424,37.396469],[127.120191,37.39825],[127.12006,37.399258],[127.119895,37.400522],[127.119757,37.401579],[127.119629,37.402552],[127.119512,37.403243],[127.119135,37.405455],[127.121529,37.40539],[127.124502,37.405311]]]]}},{"type":"Feature","properties":{"code":"4113562000","name":"야탑1동","full_name":"경기도 성남시분당구 야탑1동","level":"hjd","color":1,"area_km2":1.134,"label_lon":127.122447,"label_lat":37.41299},"geometry":{"type":"MultiPolygon","coordinates":[[[[127.133884,37.416964],[127.13388,37.409433],[127.12709,37.409855],[127.126295,37.40986],[127.125613,37.409741],[127.12534,37.409693],[127.124812,37.409567],[127.123018,37.409138],[127.122962,37.409124],[127.122878,37.409105],[127.121088,37.408719],[127.120961,37.408691],[127.120123,37.408515],[127.119267,37.408393],[127.11882,37.408362],[127.118729,37.408356],[127.118336,37.411228],[127.117961,37.41521],[127.118996,37.415732],[127.120511,37.416453],[127.122116,37.416949],[127.122775,37.41686],[127.125841,37.416809],[127.13038,37.41691],[127.131194,37.417112],[127.132847,37.417033],[127.133884,37.416964]]]]}},{"type":"Feature","properties":{"code":"4113563000","name":"야탑2동","full_name":"경기도 성남시분당구 야탑2동","level":"hjd","color":0,"area_km2":0.621,"label_lon":127.126489,"label_lat":37.40759},"geometry":{"type":"MultiPolygon","coordinates":[[[[127.13388,37.409433],[127.134134,37.409466],[127.135057,37.409586],[127.135694,37.409652],[127.135901,37.409673],[127.135956,37.409676],[127.136631,37.409684],[127.137082,37.409639],[127.137187,37.409628],[127.137523,37.409591],[127.137925,37.409548],[127.137983,37.409541],[127.138004,37.409307],[127.137951,37.408344],[127.137886,37.407768],[127.136881,37.407809],[127.135615,37.407723],[127.134103,37.407471],[127.133846,37.407376],[127.132488,37.406877],[127.132235,37.406784],[127.132183,37.406765],[127.132154,37.406748],[127.132058,37.40669],[127.131408,37.406296],[127.13117,37.406151],[127.130395,37.405681],[127.129848,37.405458],[127.129055,37.405373],[127.128627,37.405326],[127.124502,37.405311],[127.121529,37.40539],[127.119135,37.405455],[127.11882,37.407712],[127.118729,37.408356],[127.11882,37.408362],[127.119267,37.408393],[127.120123,37.408515],[127.120961,37.408691],[127.121088,37.408719],[127.122878,37.409105],[127.122962,37.409124],[127.123018,37.409138],[127.124812,37.409567],[127.12534,37.409693],[127.125613,37.409741],[127.126295,37.40986],[127.12709,37.409855],[127.13388,37.409433]]]]}},{"type":"Feature","properties":{"code":"4113564000","name":"야탑3동","full_name":"경기도 성남시분당구 야탑3동","level":"hjd","color":2,"area_km2":5.448,"label_lon":127.147615,"label_lat":37.40352},"geometry":{"type":"MultiPolygon","coordinates":[[[[127.174259,37.405427],[127.171894,37.40154],[127.171759,37.401283],[127.171616,37.40101],[127.171442,37.399796],[127.170829,37.397911],[127.169378,37.396085],[127.169069,37.395735],[127.168664,37.395449],[127.163771,37.395758],[127.161647,37.396105],[127.161129,37.396145],[127.156794,37.396444],[127.156715,37.396435],[127.156635,37.396426],[127.156439,37.396404],[127.15525,37.396194],[127.154732,37.395801],[127.154567,37.395752],[127.154187,37.395641],[127.151343,37.395569],[127.151271,37.395894],[127.151179,37.396312],[127.150127,37.396451],[127.149717,37.396505],[127.147872,37.395952],[127.146537,37.39519],[127.145715,37.394683],[127.14527,37.395831],[127.141059,37.39953],[127.137998,37.40051],[127.136895,37.400811],[127.133647,37.401445],[127.132692,37.401168],[127.131616,37.400856],[127.130811,37.40033],[127.128739,37.398979],[127.128279,37.402552],[127.12823,37.402936],[127.128627,37.405326],[127.129055,37.405373],[127.129848,37.405458],[127.130395,37.405681],[127.13117,37.406151],[127.131408,37.406296],[127.132058,37.40669],[127.132154,37.406748],[127.132183,37.406765],[127.132235,37.406784],[127.132488,37.406877],[127.133846,37.407376],[127.134103,37.407471],[127.135615,37.407723],[127.136881,37.407809],[127.137886,37.407768],[127.137951,37.408344],[127.138004,37.409307],[127.137983,37.409541],[127.137925,37.409548],[127.137523,37.409591],[127.137187,37.409628],[127.137082,37.409639],[127.136631,37.409684],[127.135956,37.409676],[127.135901,37.409673],[127.135694,37.409652],[127.135057,37.409586],[127.134134,37.409466],[127.13388,37.409433],[127.133884,37.416964],[127.135219,37.416887],[127.13836,37.415987],[127.141325,37.415581],[127.141851,37.415581],[127.142651,37.415423],[127.143595,37.415043],[127.146866,37.412497],[127.146745,37.412277],[127.146568,37.411959],[127.146346,37.411557],[127.146552,37.410983],[127.151664,37.410486],[127.154792,37.410468],[127.155135,37.410468],[127.155158,37.410516],[127.155278,37.410766],[127.16015,37.4088],[127.163314,37.407305],[127.164666,37.406692],[127.167725,37.405979],[127.169491,37.405891],[127.17123,37.405817],[127.172702,37.405869],[127.173242,37.405833],[127.174259,37.405427]]]]}},{"type":"Feature","properties":{"code":"4113565000","name":"판교동","full_name":"경기도 성남시분당구 판교동","level":"hjd","color":0,"area_km2":4.864,"label_lon":127.093592,"label_lat":37.386607},"geometry":{"type":"MultiPolygon","coordinates":[[[[127.101889,37.391142],[127.10224,37.38926],[127.102328,37.388768],[127.102892,37.385611],[127.103017,37.384912],[127.103422,37.382412],[127.103428,37.381409],[127.103453,37.376106],[127.101823,37.376652],[127.095953,37.375902],[127.093842,37.376],[127.089857,37.375163],[127.086146,37.374215],[127.082974,37.373404],[127.08231,37.372804],[127.081946,37.372476],[127.081596,37.37216],[127.081094,37.371706],[127.079709,37.371479],[127.078919,37.371818],[127.078477,37.372759],[127.078028,37.373719],[127.078706,37.376761],[127.079028,37.377775],[127.079464,37.378733],[127.080416,37.379783],[127.080493,37.379831],[127.082409,37.381009],[127.085424,37.382877],[127.084904,37.383532],[127.08474,37.383738],[127.084463,37.384087],[127.084105,37.384538],[127.083848,37.385048],[127.08383,37.385272],[127.083815,37.385466],[127.08388,37.38606],[127.083911,37.386333],[127.086402,37.39311],[127.086745,37.393694],[127.087291,37.394624],[127.087318,37.394667],[127.087342,37.394698],[127.087412,37.39479],[127.087686,37.395338],[127.088631,37.397443],[127.088853,37.397996],[127.089127,37.398682],[127.08933,37.39974],[127.08899,37.40097],[127.088976,37.401069],[127.088818,37.40215],[127.088835,37.402333],[127.088891,37.402903],[127.08937,37.403261],[127.090011,37.403657],[127.090081,37.4037],[127.092912,37.405087],[127.094694,37.405726],[127.094743,37.405732],[127.098654,37.401986],[127.099845,37.400596],[127.099958,37.400338],[127.100162,37.399871],[127.101276,37.394492],[127.101889,37.391142]]]]}},{"type":"Feature","properties":{"code":"4113565500","name":"삼평동","full_name":"경기도 성남시분당구 삼평동","level":"hjd","color":3,"area_km2":2.918,"label_lon":127.113144,"label_lat":37.40128},"geometry":{"type":"MultiPolygon","coordinates":[[[[127.118729,37.408356],[127.11882,37.407712],[127.119135,37.405455],[127.119512,37.403243],[127.119629,37.402552],[127.119757,37.401579],[127.119895,37.400522],[127.12006,37.399258],[127.120191,37.39825],[127.120424,37.396469],[127.120505,37.395853],[127.120749,37.394736],[127.12076,37.394687],[127.115629,37.39469],[127.114155,37.394692],[127.112867,37.394692],[127.112773,37.394692],[127.111855,37.394531],[127.111848,37.394027],[127.110768,37.394032],[127.10977,37.394413],[127.109766,37.394695],[127.106267,37.394729],[127.105795,37.394395],[127.102853,37.392238],[127.101889,37.391142],[127.101276,37.394492],[127.100162,37.399871],[127.099958,37.400338],[127.099845,37.400596],[127.098654,37.401986],[127.094743,37.405732],[127.094779,37.405749],[127.094824,37.405761],[127.0949,37.40578],[127.09525,37.405899],[127.096132,37.406199],[127.097958,37.406818],[127.099549,37.407226],[127.100274,37.408779],[127.102559,37.409706],[127.104231,37.408648],[127.106572,37.407651],[127.108686,37.407651],[127.108819,37.407652],[127.109847,37.407667],[127.110091,37.40767],[127.111211,37.407689],[127.112455,37.407833],[127.113064,37.407973],[127.113587,37.408093],[127.113621,37.408101],[127.113742,37.408144],[127.114342,37.40836],[127.114736,37.408502],[127.115334,37.4088],[127.115746,37.409007],[127.116654,37.409616],[127.117199,37.410059],[127.117718,37.410575],[127.118336,37.411228],[127.118729,37.408356]]]]}},{"type":"Feature","properties":{"code":"4113565700","name":"백현동","full_name":"경기도 성남시분당구 백현동","level":"hjd","color":1,"area_km2":1.956,"label_lon":127.108943,"label_lat":37.387934},"geometry":{"type":"MultiPolygon","coordinates":[[[[127.12076,37.394687],[127.120312,37.39113],[127.116552,37.386706],[127.111755,37.381647],[127.109005,37.378512],[127.103428,37.381409],[127.103422,37.382412],[127.103017,37.384912],[127.102892,37.385611],[127.102328,37.388768],[127.10224,37.38926],[127.101889,37.391142],[127.102853,37.392238],[127.105795,37.394395],[127.106267,37.394729],[127.109766,37.394695],[127.10977,37.394413],[127.110768,37.394032],[127.111848,37.394027],[127.111855,37.394531],[127.112773,37.394692],[127.112867,37.394692],[127.114155,37.394692],[127.115629,37.39469],[127.12076,37.394687]]]]}},{"type":"Feature","properties":{"code":"4113566200","name":"금곡동","full_name":"경기도 성남시분당구 금곡동","level":"hjd","color":2,"area_km2":5.518,"label_lon":127.094913,"label_lat":37.366932},"geometry":{"type":"MultiPolygon","coordinates":[[[[127.103453,37.376106],[127.10347,37.37261],[127.103566,37.371106],[127.10357,37.37106],[127.103787,37.368495],[127.104029,37.367539],[127.104091,37.367293],[127.1041,37.367258],[127.104276,37.366677],[127.104518,37.365879],[127.104521,37.365601],[127.104535,37.364132],[127.104535,37.364089],[127.104394,37.363425],[127.104215,37.362585],[127.103682,37.361987],[127.103553,37.361842],[127.103576,37.360516],[127.103644,37.356633],[127.104168,37.356632],[127.107113,37.356634],[127.107916,37.356634],[127.108369,37.356635],[127.108476,37.35664],[127.108535,37.356643],[127.111675,37.357321],[127.11751,37.353701],[127.117089,37.353195],[127.116556,37.352556],[127.116263,37.352204],[127.116149,37.352072],[127.115662,37.35151],[127.115253,37.351038],[127.114708,37.350498],[127.11447,37.350341],[127.114328,37.350282],[127.114174,37.350218],[127.114059,37.350171],[127.11379,37.350093],[127.113723,37.350073],[127.113647,37.35006],[127.113443,37.350024],[127.109035,37.350019],[127.106751,37.350025],[127.10635,37.350034],[127.105384,37.350058],[127.104566,37.350063],[127.10337,37.350071],[127.103368,37.348784],[127.103368,37.348164],[127.103367,37.347427],[127.10183,37.346496],[127.101784,37.346479],[127.101728,37.346488],[127.096253,37.34785],[127.096039,37.347904],[127.095718,37.347986],[127.095556,37.348136],[127.095217,37.348669],[127.095106,37.348975],[127.095098,37.349395],[127.0943,37.353233],[127.092634,37.357622],[127.092408,37.358045],[127.092113,37.358347],[127.088547,37.359771],[127.084844,37.3619],[127.084645,37.362032],[127.082851,37.363428],[127.078534,37.365519],[127.077516,37.368793],[127.077074,37.371125],[127.077066,37.371171],[127.078477,37.372759],[127.078919,37.371818],[127.079709,37.371479],[127.081094,37.371706],[127.081596,37.37216],[127.081946,37.372476],[127.08231,37.372804],[127.082974,37.373404],[127.086146,37.374215],[127.089857,37.375163],[127.093842,37.376],[127.095953,37.375902],[127.101823,37.376652],[127.103453,37.376106]]]]}},{"type":"Feature","properties":{"code":"4113566500","name":"구미1동","full_name":"경기도 성남시분당구 구미1동","level":"hjd","color":0,"area_km2":3.54,"label_lon":127.08138,"label_lat":37.357343},"geometry":{"type":"MultiPolygon","coordinates":[[[[127.11751,37.353701],[127.119676,37.352338],[127.120247,37.351287],[127.120733,37.350394],[127.120727,37.346902],[127.120727,37.346512],[127.120027,37.346507],[127.119216,37.346503],[127.114521,37.346303],[127.108933,37.345832],[127.108927,37.344688],[127.108925,37.344354],[127.108921,37.343609],[127.108921,37.343527],[127.108919,37.343204],[127.108916,37.342712],[127.103274,37.342431],[127.102397,37.342415],[127.10225,37.342412],[127.101156,37.343108],[127.098138,37.342986],[127.097891,37.343008],[127.097049,37.343204],[127.096991,37.343219],[127.096903,37.343296],[127.096787,37.343396],[127.092458,37.347128],[127.090485,37.347778],[127.088866,37.348399],[127.088367,37.348688],[127.088172,37.348818],[127.087955,37.348987],[127.087805,37.349112],[127.087758,37.349151],[127.087503,37.349392],[127.087307,37.34961],[127.087281,37.349669],[127.087223,37.349798],[127.087192,37.34991],[127.087154,37.350047],[127.087136,37.350441],[127.087098,37.350688],[127.087007,37.350931],[127.086986,37.350957],[127.086401,37.351423],[127.086334,37.351467],[127.086197,37.351533],[127.085721,37.351716],[127.085486,37.351786],[127.084638,37.352021],[127.08459,37.35203],[127.084429,37.352057],[127.083782,37.352063],[127.08373,37.35206],[127.083685,37.352057],[127.083556,37.352031],[127.08283,37.351804],[127.082725,37.351762],[127.082674,37.351741],[127.082443,37.351603],[127.081748,37.351142],[127.081503,37.350962],[127.081304,37.350806],[127.081227,37.350727],[127.080842,37.35039],[127.080042,37.349929],[127.079871,37.349852],[127.078664,37.349339],[127.0781,37.349102],[127.078002,37.349071],[127.077736,37.349055],[127.077616,37.349077],[127.077478,37.349156],[127.077127,37.3494],[127.076506,37.349917],[127.076177,37.350259],[127.075518,37.351051],[127.075209,37.351433],[127.075056,37.351697],[127.074826,37.352186],[127.074626,37.352716],[127.074589,37.352822],[127.074541,37.353167],[127.076607,37.35406],[127.075637,37.356123],[127.075376,37.358938],[127.075452,37.359735],[127.076851,37.363466],[127.078534,37.365519],[127.082851,37.363428],[127.084645,37.362032],[127.084844,37.3619],[127.088547,37.359771],[127.092113,37.358347],[127.092408,37.358045],[127.092634,37.357622],[127.0943,37.353233],[127.095098,37.349395],[127.095106,37.348975],[127.095217,37.348669],[127.095556,37.348136],[127.095718,37.347986],[127.096039,37.347904],[127.096253,37.34785],[127.101728,37.346488],[127.101784,37.346479],[127.10183,37.346496],[127.103367,37.347427],[127.103368,37.348164],[127.103368,37.348784],[127.10337,37.350071],[127.104566,37.350063],[127.105384,37.350058],[127.10635,37.350034],[127.106751,37.350025],[127.109035,37.350019],[127.113443,37.350024],[127.113647,37.35006],[127.113723,37.350073],[127.11379,37.350093],[127.114059,37.350171],[127.114174,37.350218],[127.114328,37.350282],[127.11447,37.350341],[127.114708,37.350498],[127.115253,37.351038],[127.115662,37.35151],[127.116149,37.352072],[127.116263,37.352204],[127.116556,37.352556],[127.117089,37.353195],[127.11751,37.353701]]]]}},{"type":"Feature","properties":{"code":"4113567000","name":"구미동","full_name":"경기도 성남시분당구 구미동","level":"hjd","color":2,"area_km2":3.84,"label_lon":127.127336,"label_lat":37.344369},"geometry":{"type":"MultiPolygon","coordinates":[[[[127.131737,37.351201],[127.132855,37.350537],[127.132637,37.349314],[127.132576,37.349263],[127.13251,37.349188],[127.132486,37.349123],[127.132479,37.349097],[127.132511,37.34902],[127.132541,37.348974],[127.132851,37.348602],[127.133025,37.348396],[127.13414,37.347208],[127.135325,37.346293],[127.137859,37.344394],[127.138024,37.344081],[127.138065,37.343717],[127.138062,37.342227],[127.137955,37.341173],[127.137872,37.340359],[127.137747,37.340094],[127.13754,37.33988],[127.13727,37.33973],[127.136834,37.339665],[127.136344,37.339641],[127.133395,37.338614],[127.130531,37.337638],[127.130471,37.33762],[127.129601,37.337485],[127.126525,37.337395],[127.123292,37.337006],[127.121402,37.334983],[127.121396,37.334954],[127.121362,37.334862],[127.121337,37.334817],[127.121283,37.334771],[127.120716,37.334407],[127.120411,37.334288],[127.119701,37.334075],[127.117207,37.333431],[127.117073,37.333401],[127.117024,37.333403],[127.11699,37.333405],[127.116881,37.333415],[127.116797,37.333463],[127.116771,37.333481],[127.11673,37.33351],[127.115653,37.334278],[127.115238,37.334651],[127.115153,37.334766],[127.115088,37.334903],[127.114978,37.335048],[127.114668,37.335281],[127.113981,37.335509],[127.113398,37.335665],[127.113302,37.335675],[127.113075,37.335698],[127.112966,37.335697],[127.112914,37.335697],[127.112862,37.335695],[127.112748,37.335689],[127.110314,37.33464],[127.108959,37.336012],[127.106936,37.337147],[127.106404,37.337403],[127.105623,37.337778],[127.10544,37.337833],[127.105182,37.337912],[127.105146,37.337927],[127.104996,37.337992],[127.104803,37.338089],[127.103965,37.338613],[127.10307,37.339566],[127.1027,37.339961],[127.10225,37.342412],[127.102397,37.342415],[127.103274,37.342431],[127.108916,37.342712],[127.108919,37.343204],[127.108921,37.343527],[127.108921,37.343609],[127.108925,37.344354],[127.108927,37.344688],[127.108933,37.345832],[127.114521,37.346303],[127.119216,37.346503],[127.120027,37.346507],[127.120727,37.346512],[127.120727,37.346902],[127.120733,37.350394],[127.120247,37.351287],[127.119676,37.352338],[127.121306,37.352502],[127.123212,37.352781],[127.12404,37.352911],[127.124347,37.35296],[127.124803,37.353031],[127.125521,37.353139],[127.125751,37.353174],[127.127476,37.35329],[127.127743,37.353174],[127.127856,37.353099],[127.127921,37.353055],[127.128034,37.352979],[127.131737,37.351201]]]]}},{"type":"Feature","properties":{"code":"4113568000","name":"운중동","full_name":"경기도 성남시분당구 운중동","level":"hjd","color":1,"area_km2":17.813,"label_lon":127.060676,"label_lat":37.380427},"geometry":{"type":"MultiPolygon","coordinates":[[[[127.08899,37.40097],[127.08933,37.39974],[127.089127,37.398682],[127.088853,37.397996],[127.088631,37.397443],[127.087686,37.395338],[127.087412,37.39479],[127.087342,37.394698],[127.087318,37.394667],[127.087291,37.394624],[127.086745,37.393694],[127.086402,37.39311],[127.083911,37.386333],[127.08388,37.38606],[127.083815,37.385466],[127.08383,37.385272],[127.083848,37.385048],[127.084105,37.384538],[127.084463,37.384087],[127.08474,37.383738],[127.084904,37.383532],[127.085424,37.382877],[127.082409,37.381009],[127.080493,37.379831],[127.080416,37.379783],[127.079464,37.378733],[127.079028,37.377775],[127.078706,37.376761],[127.078028,37.373719],[127.078477,37.372759],[127.077066,37.371171],[127.077074,37.371125],[127.077516,37.368793],[127.078534,37.365519],[127.076851,37.363466],[127.075452,37.359735],[127.075376,37.358938],[127.075637,37.356123],[127.076607,37.35406],[127.074541,37.353167],[127.074472,37.353454],[127.074348,37.353827],[127.074042,37.35448],[127.073648,37.355127],[127.073511,37.355341],[127.073475,37.355396],[127.073202,37.355703],[127.073116,37.3558],[127.0725,37.356402],[127.071808,37.356975],[127.071173,37.357465],[127.070885,37.357675],[127.070521,37.357894],[127.070235,37.358034],[127.070129,37.358082],[127.070038,37.358123],[127.069374,37.358418],[127.069185,37.3585],[127.068668,37.358704],[127.067446,37.359128],[127.066608,37.35938],[127.064209,37.36007],[127.06307,37.360386],[127.061164,37.360723],[127.060752,37.360775],[127.06064,37.360783],[127.06055,37.360788],[127.059111,37.360826],[127.058745,37.360819],[127.058302,37.360809],[127.057985,37.360785],[127.057713,37.360746],[127.057661,37.360738],[127.05679,37.360445],[127.056661,37.360395],[127.05653,37.360344],[127.056157,37.360174],[127.05595,37.360108],[127.055744,37.360042],[127.055472,37.359985],[127.055413,37.359979],[127.055265,37.359974],[127.054237,37.360131],[127.05414,37.360154],[127.054029,37.360215],[127.053067,37.360939],[127.052997,37.361029],[127.052947,37.361127],[127.052903,37.361279],[127.052843,37.361669],[127.052822,37.361962],[127.052819,37.362017],[127.052833,37.362112],[127.052915,37.362242],[127.053093,37.362511],[127.053129,37.362637],[127.053175,37.3628],[127.053148,37.363028],[127.053108,37.363256],[127.053055,37.363358],[127.053013,37.363437],[127.052881,37.363604],[127.052699,37.363766],[127.052507,37.363911],[127.052066,37.36419],[127.051859,37.364303],[127.051616,37.364433],[127.050975,37.364724],[127.049649,37.365233],[127.047402,37.366489],[127.047139,37.366663],[127.046988,37.366801],[127.046886,37.366946],[127.046867,37.366981],[127.046826,37.36706],[127.046812,37.367099],[127.046794,37.367148],[127.046594,37.36767],[127.046374,37.368172],[127.046342,37.368235],[127.046251,37.368314],[127.046088,37.368412],[127.045939,37.368472],[127.045846,37.36851],[127.045812,37.368523],[127.045339,37.368697],[127.045229,37.368725],[127.044845,37.368788],[127.04274,37.369043],[127.035682,37.370581],[127.030603,37.371972],[127.03016,37.372039],[127.029605,37.372055],[127.029562,37.372043],[127.029526,37.372032],[127.029338,37.371962],[127.027942,37.372142],[127.02772,37.372659],[127.02717,37.375032],[127.027101,37.375382],[127.027092,37.375483],[127.027089,37.375519],[127.027084,37.375571],[127.027399,37.37673],[127.027414,37.376785],[127.028054,37.377871],[127.028887,37.379247],[127.02894,37.379295],[127.028992,37.37931],[127.029061,37.379325],[127.029129,37.379338],[127.029373,37.37936],[127.02942,37.379358],[127.029617,37.379349],[127.029691,37.379336],[127.031456,37.381237],[127.032699,37.384094],[127.035364,37.388793],[127.03695,37.38935],[127.037035,37.389384],[127.037109,37.389441],[127.037142,37.389467],[127.03839,37.390461],[127.038465,37.390564],[127.038537,37.390687],[127.038712,37.391069],[127.038717,37.391145],[127.038718,37.39121],[127.038719,37.391329],[127.038281,37.398171],[127.038242,37.398524],[127.038202,37.398659],[127.03809,37.398858],[127.038033,37.398922],[127.037707,37.399745],[127.037405,37.400842],[127.037385,37.40093],[127.037385,37.400991],[127.03741,37.401069],[127.03746,37.401154],[127.037645,37.401385],[127.03775,37.401488],[127.037828,37.401554],[127.038343,37.401907],[127.038392,37.401932],[127.038458,37.401965],[127.038536,37.401988],[127.03904,37.402125],[127.039181,37.402159],[127.039233,37.402164],[127.03928,37.402169],[127.03945,37.40217],[127.039516,37.402169],[127.039551,37.402166],[127.039603,37.402162],[127.03982,37.402148],[127.040039,37.402144],[127.040314,37.402187],[127.040428,37.402206],[127.040474,37.402214],[127.040566,37.40223],[127.04075,37.402273],[127.040825,37.402305],[127.043471,37.403585],[127.043527,37.403629],[127.043672,37.403926],[127.043712,37.404093],[127.0437,37.404206],[127.044938,37.403748],[127.046403,37.403757],[127.047973,37.40376],[127.049754,37.403654],[127.055875,37.402425],[127.056251,37.402297],[127.05654,37.402175],[127.056716,37.402101],[127.058775,37.401185],[127.059626,37.400698],[127.06021,37.400167],[127.060415,37.400017],[127.060703,37.399807],[127.06237,37.398926],[127.063052,37.398661],[127.063228,37.398631],[127.063473,37.39859],[127.067635,37.397952],[127.07451,37.397866],[127.07483,37.39799],[127.074961,37.39804],[127.075715,37.39841],[127.076428,37.398775],[127.076527,37.398826],[127.076934,37.39893],[127.078515,37.399114],[127.078673,37.399079],[127.078878,37.399032],[127.080014,37.398657],[127.081138,37.398127],[127.084011,37.39697],[127.084257,37.397073],[127.084635,37.397582],[127.085666,37.398774],[127.086058,37.399225],[127.087612,37.400369],[127.08899,37.40097]]]]}}]}