{"type":"FeatureCollection","features":[{"type":"Feature","properties":{"code":"41135","name":"성남시 분당구","full_name":"경기도 성남시 분당구","level":"sgg","area_km2":69.893},"geometry":{"type":"Polygon","coordinates":[[[127.13250992988979,37.349187968764774],[127.13248625593087,37.349122545723866],[127.13247945415542,37.3490968819981],[127.13251060705213,37.34902031329634],[127.13254132232059,37.348973987390714],[127.13285080484354,37.34860200032208],[127.1330254009419,37.348396350271244],[127.13414047372821,37.34720772327876],[127.13532545038595,37.34629309495215],[127.13785866646893,37.34439444637006],[127.13802387859106,37.34408059373377],[127.13806513967285,37.343716785483245],[127.13806240995363,37.342227236970174],[127.13795522139029,37.34117306428036],[127.1378724015942,37.340358532766764],[127.13774736470535,37.34009449448655],[127.13753954161281,37.33987977871],[127.13727002734772,37.339730223946574],[127.13683429218291,37.339664663414965],[127.13634402208058,37.33964062278096],[127.13339474131736,37.33861407979642],[127.13053135914421,37.33763843546332],[127.1304711079624,37.3376203367418],[127.1296014813342,37.33748454568584],[127.1265249607715,37.337394875895605],[127.12329187362045,37.337006052485215],[127.12140198700375,37.33498315862923],[127.12139640407271,37.33495360953478],[127.12136238268988,37.33486247142629],[127.12133720995931,37.334817321530586],[127.12128311071156,37.334770952306954],[127.12071627538178,37.33440745512825],[127.120411385138,37.3342881703321],[127.1197012819383,37.33407519082553],[127.11720697473908,37.33343054270347],[127.11707307597652,37.33340081434626],[127.11702437851875,37.333402910193875],[127.11698980260067,37.333405051736555],[127.11688110214757,37.33341484040214],[127.11679689438196,37.333463017234784],[127.11677140432721,37.33348096240877],[127.11673033571925,37.33351012444721],[127.1156526118222,37.33427844067545],[127.11523797991269,37.33465116842058],[127.11515343058375,37.334765820211516],[127.11508782374473,37.334902504862164],[127.1149784279352,37.335048060844905],[127.11466750970958,37.335281409099636],[127.11398125820944,37.335509025588344],[127.11339768027035,37.335664862717806],[127.11330238690437,37.33567469189152],[127.11307508371638,37.335697610136656],[127.11296608156475,37.335697253609936],[127.1129135688917,37.33569676632925],[127.11286202407233,37.3356946596969],[127.11274845641292,37.3356886543662],[127.11031409948193,37.334639560195306],[127.10895863437398,37.33601172199929],[127.10693563076266,37.3371466327091],[127.10640442438412,37.33740288839352],[127.1056228134212,37.33777774085133],[127.1054397862418,37.33783346721362],[127.10518242937736,37.33791227312898],[127.10514648059599,37.33792713418812],[127.10499586101133,37.33799198187199],[127.10480343657012,37.338089364958805],[127.1039652961785,37.33861274616817],[127.10306984501005,37.33956634065379],[127.10270015460546,37.33996058258117],[127.10224979511966,37.34241196367596],[127.10115598031132,37.34310789911906],[127.09813795268487,37.34298622057499],[127.09789087228029,37.34300791564021],[127.09704943041585,37.34320448400322],[127.09699149272102,37.343218934150975],[127.09690285104921,37.34329591687794],[127.09678732728231,37.34339626194719],[127.09245796143517,37.34712780529746],[127.09048495014098,37.34777787530317],[127.08886631896898,37.34839872269095],[127.08836724268134,37.34868768336523],[127.08817247980734,37.34881770612168],[127.08795490847999,37.34898708464051],[127.08780462567978,37.34911162805558],[127.08775781392872,37.34915093381533],[127.08750318597404,37.34939225967479],[127.08730722743633,37.3496101616985],[127.08728079158483,37.34966865939335],[127.0872229291951,37.34979803137086],[127.08719192317919,37.3499096406333],[127.08715382200242,37.35004679736978],[127.08713613785636,37.35044109085743],[127.0870980916711,37.35068771173853],[127.08700748820002,37.350930768933125],[127.08698582035188,37.3509566080518],[127.08640107332377,37.3514232842738],[127.08633378709814,37.35146699142606],[127.08619652048715,37.351532988341205],[127.08572128837439,37.35171610851896],[127.08548591185479,37.35178626788788],[127.08463848376455,37.35202103515307],[127.08458974754018,37.35202987784711],[127.08442939631863,37.352057482854846],[127.08378224895861,37.35206253137182],[127.08373018930479,37.35205977474001],[127.08368489251063,37.35205711850374],[127.08355588978169,37.352030749671115],[127.0828302759327,37.35180397397661],[127.08272515109141,37.351761932268516],[127.08267395759059,37.35174145253166],[127.08244255543175,37.35160317504807],[127.08174787879544,37.35114212430493],[127.08150330706846,37.350962127477004],[127.08130375919488,37.350805932785306],[127.08122657332042,37.35072678854897],[127.08084243200017,37.35038966284048],[127.08004192939165,37.34992937177604],[127.07987088560148,37.34985214686962],[127.07866388551984,37.34933866270629],[127.07810029810939,37.34910220427314],[127.07800167651354,37.34907143082047],[127.07773573823921,37.34905470764154],[127.07761553161657,37.34907687798075],[127.07747830493219,37.34915633070343],[127.07712692800318,37.34939956633988],[127.07650585332344,37.349916766574744],[127.07617719362445,37.35025924180943],[127.07551786253299,37.351051221452394],[127.0752089120173,37.35143298379344],[127.07505552263264,37.35169743039537],[127.0748262471567,37.35218560666511],[127.07462566107185,37.352715574555035],[127.07458912437738,37.35282229756127],[127.07454050281174,37.3531672449378],[127.07447188277418,37.35345415513414],[127.074347685836,37.35382665527612],[127.07404194724492,37.35448018365342],[127.07364803315731,37.35512663301203],[127.07351060748363,37.355341342599985],[127.07347500938377,37.355396423902874],[127.07320227336469,37.355703036809196],[127.07311633844297,37.355799625290295],[127.07250034342901,37.35640245334381],[127.07180758119249,37.356974578600514],[127.07117315791291,37.35746466014381],[127.0708847126684,37.35767543879921],[127.07052142396492,37.35789383211047],[127.0702347914762,37.35803363193603],[127.07012936568489,37.358081698114155],[127.07003808183107,37.35812305524097],[127.06937369831188,37.35841809432112],[127.06918478926423,37.35849965750566],[127.06866771658235,37.35870396414551],[127.06744573182607,37.359127658022864],[127.06660794290755,37.35938035833559],[127.06420929557349,37.36007011591514],[127.06307045950378,37.36038590495586],[127.06116431723245,37.360722500010986],[127.06075231755518,37.36077481025048],[127.06063957943286,37.360782521999575],[127.06054990892169,37.360787822519306],[127.0591113051207,37.36082641046903],[127.05874505215533,37.36081941110959],[127.05830188516079,37.36080874324939],[127.05798512368064,37.36078502544858],[127.05771292372188,37.360745699268314],[127.05766074352984,37.36073761706282],[127.05679012315605,37.360444789471806],[127.05666055487399,37.3603947279648],[127.05652958187612,37.36034353432332],[127.05615651807399,37.3601742528691],[127.05595012172122,37.36010812810973],[127.05574371444158,37.36004200294939],[127.05547233611532,37.35998464708711],[127.05541308584817,37.35997879077285],[127.05526490370855,37.35997372681663],[127.05423707048155,37.360130979655835],[127.054140247417,37.360154275978346],[127.05402907783258,37.36021470008821],[127.05306705369267,37.36093893393997],[127.0529973541354,37.36102880862322],[127.05294665767083,37.36112664216762],[127.05290340931646,37.36127858667618],[127.0528432165977,37.36166933295015],[127.05282242816352,37.36196220301898],[127.0528188562767,37.3620170159818],[127.0528328095723,37.3621119660671],[127.05291534421221,37.362241982198896],[127.05309302129514,37.36251081432406],[127.05312897352987,37.36263714341142],[127.05317459304965,37.36279956421956],[127.05314782865511,37.363028188370066],[127.05310836661828,37.363255637806205],[127.05305481889073,37.36335796748515],[127.05301271526731,37.363436679154354],[127.05288114275268,37.36360406393324],[127.052698797421,37.36376562293685],[127.05250736402817,37.36391137311728],[127.05206598205221,37.36419025696931],[127.0518585130067,37.364303270325856],[127.0516163655333,37.36443304642462],[127.05097515521076,37.36472356875425],[127.04964869758479,37.365233438953595],[127.04740159268083,37.36648904670242],[127.04713938889107,37.36666324421706],[127.04698786301937,37.36680069220802],[127.04688570112599,37.366945648323444],[127.04686713974552,37.366980505670234],[127.04682572101618,37.367060344413865],[127.04681172945256,37.3670986760505],[127.04679413626891,37.367148107893776],[127.04659407158019,37.36767014120158],[127.04637435160151,37.368171817700045],[127.04634221491357,37.368234790992496],[127.0462506751316,37.36831443725935],[127.04608774298211,37.36841183707405],[127.04593915118427,37.368472109821234],[127.04584559342221,37.3685098248738],[127.0458117885386,37.3685234501119],[127.0453392301243,37.36869740344483],[127.04522894960027,37.36872514756415],[127.04484529789433,37.36878789505543],[127.04274013465192,37.36904341583082],[127.03568214890247,37.370580949856446],[127.03060321261833,37.37197155887198],[127.03016021179597,37.37203852994008],[127.0296045697536,37.3720554755969],[127.02956229516136,37.372042913502504],[127.02952637198979,37.37203150338133],[127.0293383294589,37.371962025128525],[127.02794237427015,37.37214238803066],[127.02771961318282,37.37265864723439],[127.02716964307466,37.375031580311216],[127.02710110045314,37.37538171679986],[127.0270919930476,37.37548308535838],[127.02708883980182,37.37551938925106],[127.02708438230145,37.375570939236084],[127.02739900509675,37.37673046693776],[127.02741419579306,37.37678461028227],[127.02805401838292,37.37787107146626],[127.02888689203216,37.37924673889712],[127.02893994253279,37.37929473852377],[127.02899213145835,37.37931037976644],[127.02906147748966,37.37932517801689],[127.0291291697185,37.37933784149087],[127.02937328934509,37.37936022091957],[127.02941989512824,37.379358152935126],[127.02961655498686,37.3793493581693],[127.02969112188279,37.37933557071427],[127.03145617101568,37.381236595157496],[127.03269930002266,37.384094370943565],[127.0353643893056,37.388793154927704],[127.03695026646409,37.38935034146107],[127.03703546450683,37.389384464921804],[127.03710856322206,37.38944109878972],[127.03714159296965,37.38946714263197],[127.03839013803002,37.39046128383648],[127.03846506137356,37.390564107768384],[127.03853702514236,37.39068720105389],[127.03871191386324,37.391068714608565],[127.03871709277179,37.391145351735034],[127.03871811134944,37.3912095787174],[127.03871949204202,37.39132901636381],[127.03828142801405,37.39817099645502],[127.03824183475142,37.3985235046],[127.03820217444748,37.39865855587515],[127.03809008450392,37.398857547134455],[127.03803337991297,37.39892181894077],[127.03770650787482,37.3997447039774],[127.0374049540001,37.40084237717608],[127.03738533097699,37.40093020600447],[127.03738499262437,37.40099131153058],[127.03740989577302,37.40106885231458],[127.03746022271882,37.4011535890683],[127.0376445723994,37.40138533854846],[127.03774981000406,37.40148823443641],[127.0378284932767,37.40155445048448],[127.03834324318936,37.401907433904206],[127.03839176492791,37.40193233451188],[127.03845798711578,37.40196534444998],[127.03853552519115,37.40198818144232],[127.03903959850571,37.402125353775816],[127.03918126127918,37.402158535711116],[127.03923284887657,37.40216441541245],[127.03927990520056,37.40216908762144],[127.03945031542271,37.402169769538865],[127.03951598860218,37.402168898607705],[127.03955110943343,37.40216630421961],[127.03960289203991,37.40216247672179],[127.03981977083525,37.40214754696659],[127.04003941657797,37.40214389475141],[127.04031384848902,37.40218665055388],[127.04042812782573,37.40220624899145],[127.04047404151761,37.4022143234777],[127.04056568832202,37.40223044465385],[127.0407497853139,37.402272696065936],[127.0408251048397,37.402304689012865],[127.04347111822854,37.40358474570465],[127.04352698884253,37.40362890339125],[127.04367242984041,37.40392579144609],[127.04371165764118,37.40409327386699],[127.04369971656885,37.40420642770929],[127.04493757338543,37.403748140153574],[127.04640291669352,37.403757412377885],[127.04797271534342,37.4037599350604],[127.04975358444794,37.40365390598352],[127.0558749505216,37.40242527422457],[127.05625138843597,37.402297115027],[127.05653989703234,37.40217500660348],[127.05671579272354,37.40210055464564],[127.05877469024402,37.401185472512225],[127.05962563385275,37.40069763898481],[127.06020990802678,37.40016663326677],[127.06041536386095,37.40001663330393],[127.06070278733449,37.39980678878768],[127.06237017317903,37.39892624408828],[127.06305171953751,37.398660605504865],[127.06322842488737,37.39863100821247],[127.06347298482964,37.39859005146799],[127.06763507846138,37.39795183767051],[127.07451042268629,37.39786636855714],[127.07482950561038,37.39798968788724],[127.07496064961222,37.398040375014254],[127.07571483325846,37.39841039511578],[127.0764282170192,37.398774693753154],[127.07652737208377,37.39882568638917],[127.07693422247699,37.39892967426406],[127.07851493492377,37.39911446785234],[127.07867254143588,37.39907880326567],[127.07887764917976,37.39903238298232],[127.08001397235354,37.398656837235606],[127.08113790031544,37.39812721851483],[127.0840106493746,37.39696952369935],[127.08425723694491,37.39707289995188],[127.0846350295805,37.39758237843141],[127.0856657635485,37.39877355757349],[127.08605807168006,37.399224565850396],[127.08761160535386,37.4003690349464],[127.08899026681333,37.40096990242821],[127.08897573620281,37.40106933134164],[127.08881786595714,37.40215007258125],[127.08883522867006,37.40233266149354],[127.08889073063496,37.4029029744369],[127.08937038982488,37.40326068449653],[127.09001085119635,37.40365725874543],[127.09008123481219,37.40370031810811],[127.09291187405651,37.4050869485869],[127.09469398647785,37.40572638263748],[127.09474284756303,37.405731653708415],[127.09477852796572,37.405749120260225],[127.09482416056765,37.405760534821944],[127.09489961398424,37.40577994758936],[127.09525048013909,37.40589922034988],[127.09613180671401,37.40619879552192],[127.09795757151038,37.40681795300893],[127.09954932741834,37.40722559354942],[127.10027426062922,37.408779189426205],[127.1025591422324,37.40970646944234],[127.10423074594337,37.408647634268355],[127.10657171582919,37.40765124512835],[127.10868554825971,37.407650536301],[127.10881900999406,37.407652104663576],[127.10984653453497,37.407666785059156],[127.11009120734113,37.407670313449984],[127.11121149059909,37.40768928995485],[127.11245510991478,37.40783308603255],[127.11306386758449,37.40797253960276],[127.11358726856582,37.408092556878394],[127.1136210867682,37.408100540913445],[127.11374166308401,37.40814376373946],[127.11434155839996,37.408359798681104],[127.1147356056019,37.40850192324945],[127.11533367368975,37.40880019769464],[127.11574647067849,37.40900660287914],[127.1166544070504,37.40961572503004],[127.11719877920818,37.41005916264535],[127.11771806747434,37.41057462663594],[127.11833555045469,37.41122786503144],[127.1179614007708,37.41520951658397],[127.11899567671183,37.41573236049089],[127.12051057845329,37.416452698755734],[127.12211634135642,37.416949091223856],[127.12277510655831,37.4168599354214],[127.1258412345422,37.41680877772835],[127.13038010724503,37.41690950635915],[127.13119441960293,37.41711183912681],[127.13284739865517,37.41703338802689],[127.13388401482212,37.4169640719078],[127.13521864897598,37.41688658707303],[127.13835967873709,37.415986975416686],[127.14132454169426,37.415581375174604],[127.14185072891053,37.415580716946664],[127.14265100342452,37.41542314454485],[127.14359500065562,37.41504290975377],[127.14686648536272,37.41249732778739],[127.1467446952898,37.41227747900627],[127.14656813398747,37.411959000102385],[127.14634550460488,37.41155737003548],[127.14655154224674,37.41098320232183],[127.15166428468174,37.410485718873105],[127.15479233044462,37.41046785225473],[127.15513482701839,37.41046772506139],[127.15515799099637,37.41051599821691],[127.15527757605896,37.41076559544888],[127.16014974407484,37.40880004512608],[127.16331394019365,37.40730493488014],[127.16466554574558,37.40669245965013],[127.16772453846919,37.40597886766451],[127.16949112876138,37.40589059869918],[127.17123007892346,37.4058174056651],[127.17270158417563,37.40586881054697],[127.17324199114897,37.405833123459004],[127.17425924843835,37.40542693949518],[127.17189350042014,37.40153995892479],[127.1717591505377,37.40128305390736],[127.17161619680242,37.40100953046627],[127.17144210946253,37.39979566590486],[127.17082894197797,37.39791122031992],[127.16937809922683,37.39608524781126],[127.16906894921823,37.395735098797665],[127.16866419060432,37.39544890432711],[127.16835948132105,37.39490505057439],[127.16829158722578,37.39267611966476],[127.1683919367876,37.39249499857584],[127.17441339608763,37.38857270352841],[127.17681186712497,37.387247493904376],[127.17715200345552,37.386793171936425],[127.1771564232813,37.386764825680736],[127.17718974905127,37.386551082230426],[127.17665032430153,37.385078106033475],[127.17651174013764,37.38487239346137],[127.1760836579619,37.38452128415946],[127.17345123672445,37.382672770073654],[127.16873216752205,37.380642805868604],[127.16837144160725,37.38051048171181],[127.16814715995544,37.38042821360515],[127.16793571070426,37.38035100269824],[127.1675942865219,37.380291453779705],[127.16483740574644,37.37985103160575],[127.16478098975703,37.37984726348002],[127.1643955381098,37.37982158962999],[127.16429265585447,37.3798351870088],[127.16417020975366,37.3798513715937],[127.16394062919078,37.37988226777067],[127.16386740586084,37.37989618341348],[127.16370111100782,37.37992778268261],[127.1633972948738,37.37998438138188],[127.16292918732377,37.37999544211171],[127.16232264917741,37.37986413832198],[127.16169008470975,37.37971360263005],[127.1611312316515,37.3785548548221],[127.1609786550244,37.377950442632056],[127.16115404332159,37.377243555728185],[127.16117062134335,37.377188230472726],[127.16112557834468,37.37576096142275],[127.160954399419,37.37486769837332],[127.16077265206819,37.37416070311407],[127.16087809617515,37.37409905083669],[127.1608678670475,37.37386240879843],[127.16052109061826,37.37278529021694],[127.16035141697834,37.372592258882115],[127.16031960256913,37.372556095110426],[127.15807480877622,37.370075286011854],[127.1575833262379,37.36966264543082],[127.1572569524347,37.36941043977546],[127.1567202497202,37.36899875430231],[127.15619050950484,37.36861187463357],[127.15379144983224,37.36535539224636],[127.15285403079064,37.363535230316685],[127.15019197074653,37.361353927152194],[127.14984120861058,37.36120756286564],[127.14980805491989,37.36119392233138],[127.14511227171407,37.35958673254072],[127.14443214395307,37.35938863911604],[127.14192300948518,37.359414872848625],[127.1394819152213,37.359960688320946],[127.1339446102722,37.358477799991036],[127.13173657886057,37.35120127164445],[127.13285549753294,37.350536611872386],[127.13263746349982,37.34931426128926],[127.13257589856373,37.34926253792146],[127.13250992988979,37.349187968764774]]]}}]}